GLOBALSTAR M068         
1 32266U 07048D   25080.53688238 -.00000055  00000+0  27009-3 0  9997
2 32266  51.9876 209.4429 0000210 337.3905 102.2096 12.62817657806481
GLOBALSTAR M079         
1 37188U 10054A   25080.38510025 -.00000088  00000+0  85888-4 0  9993
2 37188  52.0049  47.0673 0000687  84.6263  82.1451 12.62271822665366
GLOBALSTAR M074         
1 37189U 10054B   25080.33209387 -.00000093  00000+0  57573-4 0  9991
2 37189  52.0027  46.5663 0000322 100.5028  64.0413 12.62267280665965
GLOBALSTAR M076         
1 37190U 10054C   25080.88136075 -.00000062  00000+0  23149-3 0  9993
2 37190  52.0045  45.0521 0000579 107.2170 277.7304 12.62259791666118
GLOBALSTAR M077         
1 37191U 10054D   25080.88019234 -.00000066  00000+0  20836-3 0  9995
2 37191  52.0103   1.8939 0000611  78.2706 358.7415 12.62271923666862
GLOBALSTAR M075         
1 37192U 10054E   25080.44734074 -.00000110  00000+0 -32467-4 0  9999
2 37192  51.9933  88.6822 0000333 104.8186  45.8596 12.62262544664765
GLOBALSTAR M073         
1 37193U 10054F   25080.29553582 -.00000037  00000+0  37421-3 0  9997
2 37193  52.0091   2.9009 0000678  85.9846  92.3707 12.62264749666732
GLOBALSTAR M083         
1 37739U 11033A   25080.59023799 -.00000073  00000+0  16907-3 0  9992
2 37739  51.9868 310.8553 0000888  78.0520 301.5817 12.62260848635793
GLOBALSTAR M088         
1 37740U 11033B   25080.83181707 -.00000069  00000+0  19217-3 0  9997
2 37740  51.9723 215.6803 0000759 101.5368  56.9986 12.62264540631656
GLOBALSTAR M091         
1 37741U 11033C   25080.76926389 -.00000075  00000+0  16112-3 0  9991
2 37741  51.9990 179.2717 0000682  91.4728  81.8307 12.62266189632403
GLOBALSTAR M085         
1 37742U 11033D   25080.59425422 -.00000094  00000+0  55932-4 0  9990
2 37742  51.9849 130.9205 0000530  95.3995  62.3449 12.62266658632631
GLOBALSTAR M081         
1 37743U 11033E   25080.86075231 -.00000089  00000+0  81921-4 0  9991
2 37743  51.9943 132.8418 0000620 108.2489  61.3501 12.62261938633192
GLOBALSTAR M089         
1 37744U 11033F   25080.50345644 -.00000090  00000+0  77688-4 0  9998
2 37744  51.9917  88.1721 0000396 138.0973  27.1332 12.62267626633612
GLOBALSTAR M084         
1 38040U 11080A   25080.64488672 -.00000075  00000+0  15830-3 0  9997
2 38040  52.0021 314.9866 0000632 107.1375 280.9523 12.62263888611619
GLOBALSTAR M080         
1 38041U 11080B   25080.61638030 -.00000069  00000+0  19172-3 0  9996
2 38041  52.0076 316.6511 0000836 117.5115 260.1666 12.62270279611732
GLOBALSTAR M082         
1 38042U 11080C   25080.55746272 -.00000073  00000+0  17272-3 0  9992
2 38042  52.0066 272.2641 0000933  62.0338 348.9267 12.62264368612434
GLOBALSTAR M092         
1 38043U 11080D   25080.84568049 -.00000079  00000+0  13890-3 0  9997
2 38043  52.0117   1.7559 0000540  74.9834 327.0258 12.62261175611139
GLOBALSTAR M090         
1 38044U 11080E   25080.58212400 -.00000082  00000+0  12176-3 0  9996
2 38044  51.9873 266.1107 0000893  82.7762 319.6012 12.62268385612597
GLOBALSTAR M086         
1 38045U 11080F   25080.52766837 -.00000060  00000+0  24590-3 0  9998
2 38045  51.9886 266.8208 0001671 111.7398 283.4755 12.62268446612493
GLOBALSTAR M097         
1 39072U 13005A   25080.70490547 -.00000090  00000+0  79532-4 0  9990
2 39072  52.0037 180.7376 0000824 105.0296 255.0662 12.62271039559849
GLOBALSTAR M093         
1 39073U 13005B   25080.51973830 -.00000074  00000+0  16584-3 0  9990
2 39073  51.9805 174.7419 0000781 106.1985 253.8967 12.62262908559693
GLOBALSTAR M094         
1 39074U 13005C   25080.36162643 -.00000104  00000+0  19338-6 0  9993
2 39074  51.9943  89.5174 0000627  89.3517 270.7421 12.62269231561287
GLOBALSTAR M096         
1 39075U 13005D   25080.53325753 -.00000088  00000+0  88456-4 0  9992
2 39075  52.0059 137.4440 0000644  92.4106 267.6834 12.62269610560570
GLOBALSTAR M078         
1 39076U 13005E   25080.58545281 -.00000075  00000+0  16284-3 0  9993
2 39076  51.9862 221.9091 0000827  34.4077 325.6843 12.62260450558854
GLOBALSTAR M095         
1 39077U 13005F   25080.84979698 -.00000082  00000+0  12334-3 0  9996
2 39077  51.9789 218.3467 0000989  72.2875 287.8099 12.62267948559105
GLOBALSTAR M087         
1 52888U 22064A   25080.24698956 -.00000086  00000+0  99869-4 0  9998
2 52888  51.9822   1.5875 0000698  65.2037 294.8902 12.62269515133934
